STARLINK-11252 [DTC]    
1 61051U 24164B   26063.75034786  .00000778  00000+0  11275-4 0  9998
2 61051  53.1580 335.5786 0000819 102.6927 257.4183 15.69719703 84649
STARLINK-11230 [DTC]    
1 61053U 24164D   26063.16751281  .00007107  00000+0  63434-4 0  9998
2 61053  53.1590 338.3406 0001187  82.8666 277.2487 15.69724677 84553
STARLINK-11294 [DTC]    
1 61054U 24164E   26063.16261020  .00004687  00000+0  43503-4 0  9991
2 61054  53.1583 338.3051 0001029  76.3282 283.7850 15.69719157 84552
STARLINK-11268 [DTC]    
1 61055U 24164F   26063.15769879  .00004912  00000+0  45379-4 0  9990
2 61055  53.1594 338.2737 0001189  64.9775 295.1366 15.69708966 84557
STARLINK-11156 [DTC]    
1 61056U 24164G   26063.27983542  .00034269  00000+0  28349-3 0  9994
2 61056  53.1594 337.6105 0000979  52.2722 307.8385 15.69969844 84576
STARLINK-11231 [DTC]    
1 61057U 24164H   26063.78468982  .00001440  00000+0  16737-4 0  9991
2 61057  53.1574 335.8043 0000969  57.2887 302.8224 15.69715545 84644
STARLINK-11299 [DTC]    
1 61058U 24164J   26063.77978205  .00002719  00000+0  27279-4 0  9998
2 61058  53.1585 335.7720 0001165 110.8937 249.2206 15.69722611 84645
STARLINK-11154 [DTC]    
1 61059U 24164K   26063.20182223  .00005633  00000+0  51259-4 0  9997
2 61059  53.1593 338.5622 0001075  75.9195 284.1943 15.69739778 84552
STARLINK-11297 [DTC]    
1 61060U 24164L   26063.06960778  .00001890  00000+0  20448-4 0  9999
2 61060  53.1586 339.1565 0000785  96.2901 263.8206 15.69713086 84535
STARLINK-11233 [DTC]    
1 61061U 24164M   26063.76506684  .00002892  00000+0  28751-4 0  9997
2 61061  53.1584 335.6675 0002445 117.5315 242.5951 15.69698390 84641
STARLINK-11236 [DTC]    
1 61062U 24164N   26063.76017316 -.00000867  00000+0 -23025-5 0  9999
2 61062  53.1600 335.6412 0001140 111.7707 248.3432 15.69702750 84646
STARLINK-32350          
1 61063U 24164P   26063.82909721  .00000754  00000+0  37598-4 0  9999
2 61063  53.1584 113.6794 0001162 113.5650 246.5473 15.30188628 82739
STARLINK-32378          
1 61064U 24164Q   26063.57100729  .00000165  00000+0  17688-4 0  9997
2 61064  53.1591 114.9070 0000972  99.9484 260.1627 15.30196115 82697
STARLINK-32321          
1 61065U 24164R   26063.51518894  .00001482  00000+0  62175-4 0  9992
2 61065  53.1593 115.2747 0000962 114.0882 246.0219 15.30182187 82688
STARLINK-32381          
1 61066U 24164S   26063.52573581  .00002439  00000+0  94445-4 0  9996
2 61066  53.1602 115.3362 0001152  94.4547 265.6585 15.30199065 82681
STARLINK-32385          
1 61068U 24164U   26063.51201710  .00000472  00000+0  28057-4 0  9990
2 61068  53.1589 115.2513 0000996 128.7964 231.3126 15.30191663 82680
