[{"OBJECT_NAME":"STARLINK-11252 [DTC]","OBJECT_ID":"2024-164B","EPOCH":"2026-03-04T18:00:30.055104","MEAN_MOTION":15.69719703,"ECCENTRICITY":8.19e-5,"INCLINATION":53.158,"RA_OF_ASC_NODE":335.5786,"ARG_OF_PERICENTER":102.6927,"MEAN_ANOMALY":257.4183,"EPHEMERIS_TYPE":0,"CLASSIFICATION_TYPE":"U","NORAD_CAT_ID":61051,"ELEMENT_SET_NO":999,"REV_AT_EPOCH":8464,"BSTAR":1.1275e-5,"MEAN_MOTION_DOT":7.78e-6,"MEAN_MOTION_DDOT":0},{"OBJECT_NAME":"STARLINK-11230 [DTC]","OBJECT_ID":"2024-164D","EPOCH":"2026-03-04T04:01:13.106784","MEAN_MOTION":15.69724677,"ECCENTRICITY":0.00011875,"INCLINATION":53.159,"RA_OF_ASC_NODE":338.3406,"ARG_OF_PERICENTER":82.8666,"MEAN_ANOMALY":277.2487,"EPHEMERIS_TYPE":0,"CLASSIFICATION_TYPE":"U","NORAD_CAT_ID":61053,"ELEMENT_SET_NO":999,"REV_AT_EPOCH":8455,"BSTAR":6.3433635e-5,"MEAN_MOTION_DOT":7.107e-5,"MEAN_MOTION_DDOT":0},{"OBJECT_NAME":"STARLINK-11294 [DTC]","OBJECT_ID":"2024-164E","EPOCH":"2026-03-04T03:54:09.521280","MEAN_MOTION":15.69719157,"ECCENTRICITY":0.00010294,"INCLINATION":53.1583,"RA_OF_ASC_NODE":338.3051,"ARG_OF_PERICENTER":76.3282,"MEAN_ANOMALY":283.785,"EPHEMERIS_TYPE":0,"CLASSIFICATION_TYPE":"U","NORAD_CAT_ID":61054,"ELEMENT_SET_NO":999,"REV_AT_EPOCH":8455,"BSTAR":4.3502788e-5,"MEAN_MOTION_DOT":4.687e-5,"MEAN_MOTION_DDOT":0},{"OBJECT_NAME":"STARLINK-11268 [DTC]","OBJECT_ID":"2024-164F","EPOCH":"2026-03-04T03:47:05.175456","MEAN_MOTION":15.69708966,"ECCENTRICITY":0.00011897,"INCLINATION":53.1594,"RA_OF_ASC_NODE":338.2737,"ARG_OF_PERICENTER":64.9775,"MEAN_ANOMALY":295.1366,"EPHEMERIS_TYPE":0,"CLASSIFICATION_TYPE":"U","NORAD_CAT_ID":61055,"ELEMENT_SET_NO":999,"REV_AT_EPOCH":8455,"BSTAR":4.5379249e-5,"MEAN_MOTION_DOT":4.912e-5,"MEAN_MOTION_DDOT":0},{"OBJECT_NAME":"STARLINK-11156 [DTC]","OBJECT_ID":"2024-164G","EPOCH":"2026-03-04T06:42:57.780288","MEAN_MOTION":15.69969844,"ECCENTRICITY":9.791e-5,"INCLINATION":53.1594,"RA_OF_ASC_NODE":337.6105,"ARG_OF_PERICENTER":52.2722,"MEAN_ANOMALY":307.8385,"EPHEMERIS_TYPE":0,"CLASSIFICATION_TYPE":"U","NORAD_CAT_ID":61056,"ELEMENT_SET_NO":999,"REV_AT_EPOCH":8457,"BSTAR":0.00028348872,"MEAN_MOTION_DOT":0.00034269,"MEAN_MOTION_DDOT":0},{"OBJECT_NAME":"STARLINK-11231 [DTC]","OBJECT_ID":"2024-164H","EPOCH":"2026-03-04T18:49:57.200448","MEAN_MOTION":15.69715545,"ECCENTRICITY":9.69e-5,"INCLINATION":53.1574,"RA_OF_ASC_NODE":335.8043,"ARG_OF_PERICENTER":57.2887,"MEAN_ANOMALY":302.8224,"EPHEMERIS_TYPE":0,"CLASSIFICATION_TYPE":"U","NORAD_CAT_ID":61057,"ELEMENT_SET_NO":999,"REV_AT_EPOCH":8464,"BSTAR":1.6737e-5,"MEAN_MOTION_DOT":1.44e-5,"MEAN_MOTION_DDOT":0},{"OBJECT_NAME":"STARLINK-11299 [DTC]","OBJECT_ID":"2024-164J","EPOCH":"2026-03-04T18:42:53.169120","MEAN_MOTION":15.69722611,"ECCENTRICITY":0.0001165,"INCLINATION":53.1585,"RA_OF_ASC_NODE":335.772,"ARG_OF_PERICENTER":110.8937,"MEAN_ANOMALY":249.2206,"EPHEMERIS_TYPE":0,"CLASSIFICATION_TYPE":"U","NORAD_CAT_ID":61058,"ELEMENT_SET_NO":999,"REV_AT_EPOCH":8464,"BSTAR":2.7279e-5,"MEAN_MOTION_DOT":2.719e-5,"MEAN_MOTION_DDOT":0},{"OBJECT_NAME":"STARLINK-11154 [DTC]","OBJECT_ID":"2024-164K","EPOCH":"2026-03-04T04:50:37.440672","MEAN_MOTION":15.69739778,"ECCENTRICITY":0.00010759,"INCLINATION":53.1593,"RA_OF_ASC_NODE":338.5622,"ARG_OF_PERICENTER":75.9195,"MEAN_ANOMALY":284.1943,"EPHEMERIS_TYPE":0,"CLASSIFICATION_TYPE":"U","NORAD_CAT_ID":61059,"ELEMENT_SET_NO":999,"REV_AT_EPOCH":8455,"BSTAR":5.1258667e-5,"MEAN_MOTION_DOT":5.633e-5,"MEAN_MOTION_DDOT":0},{"OBJECT_NAME":"STARLINK-11297 [DTC]","OBJECT_ID":"2024-164L","EPOCH":"2026-03-04T01:40:14.112192","MEAN_MOTION":15.69713086,"ECCENTRICITY":7.854e-5,"INCLINATION":53.1586,"RA_OF_ASC_NODE":339.1565,"ARG_OF_PERICENTER":96.2901,"MEAN_ANOMALY":263.8206,"EPHEMERIS_TYPE":0,"CLASSIFICATION_TYPE":"U","NORAD_CAT_ID":61060,"ELEMENT_SET_NO":999,"REV_AT_EPOCH":8453,"BSTAR":2.0447856e-5,"MEAN_MOTION_DOT":1.89e-5,"MEAN_MOTION_DDOT":0},{"OBJECT_NAME":"STARLINK-11233 [DTC]","OBJECT_ID":"2024-164M","EPOCH":"2026-03-04T18:21:41.774976","MEAN_MOTION":15.6969839,"ECCENTRICITY":0.0002445,"INCLINATION":53.1584,"RA_OF_ASC_NODE":335.6675,"ARG_OF_PERICENTER":117.5315,"MEAN_ANOMALY":242.5951,"EPHEMERIS_TYPE":0,"CLASSIFICATION_TYPE":"U","NORAD_CAT_ID":61061,"ELEMENT_SET_NO":999,"REV_AT_EPOCH":8464,"BSTAR":2.8751e-5,"MEAN_MOTION_DOT":2.892e-5,"MEAN_MOTION_DDOT":0},{"OBJECT_NAME":"STARLINK-11236 [DTC]","OBJECT_ID":"2024-164N","EPOCH":"2026-03-04T18:14:38.961024","MEAN_MOTION":15.6970275,"ECCENTRICITY":0.000114,"INCLINATION":53.16,"RA_OF_ASC_NODE":335.6412,"ARG_OF_PERICENTER":111.7707,"MEAN_ANOMALY":248.3432,"EPHEMERIS_TYPE":0,"CLASSIFICATION_TYPE":"U","NORAD_CAT_ID":61062,"ELEMENT_SET_NO":999,"REV_AT_EPOCH":8464,"BSTAR":-2.3025e-6,"MEAN_MOTION_DOT":-8.67e-6,"MEAN_MOTION_DDOT":0},{"OBJECT_NAME":"STARLINK-32350","OBJECT_ID":"2024-164P","EPOCH":"2026-03-04T19:53:53.998944","MEAN_MOTION":15.30188628,"ECCENTRICITY":0.0001162,"INCLINATION":53.1584,"RA_OF_ASC_NODE":113.6794,"ARG_OF_PERICENTER":113.565,"MEAN_ANOMALY":246.5473,"EPHEMERIS_TYPE":0,"CLASSIFICATION_TYPE":"U","NORAD_CAT_ID":61063,"ELEMENT_SET_NO":999,"REV_AT_EPOCH":8273,"BSTAR":3.7598e-5,"MEAN_MOTION_DOT":7.54e-6,"MEAN_MOTION_DDOT":0},{"OBJECT_NAME":"STARLINK-32378","OBJECT_ID":"2024-164Q","EPOCH":"2026-03-04T13:42:15.029856","MEAN_MOTION":15.30196115,"ECCENTRICITY":9.72e-5,"INCLINATION":53.1591,"RA_OF_ASC_NODE":114.907,"ARG_OF_PERICENTER":99.9484,"MEAN_ANOMALY":260.1627,"EPHEMERIS_TYPE":0,"CLASSIFICATION_TYPE":"U","NORAD_CAT_ID":61064,"ELEMENT_SET_NO":999,"REV_AT_EPOCH":8269,"BSTAR":1.7688e-5,"MEAN_MOTION_DOT":1.65e-6,"MEAN_MOTION_DDOT":0},{"OBJECT_NAME":"STARLINK-32321","OBJECT_ID":"2024-164R","EPOCH":"2026-03-04T12:21:52.324416","MEAN_MOTION":15.30182187,"ECCENTRICITY":9.62e-5,"INCLINATION":53.1593,"RA_OF_ASC_NODE":115.2747,"ARG_OF_PERICENTER":114.0882,"MEAN_ANOMALY":246.0219,"EPHEMERIS_TYPE":0,"CLASSIFICATION_TYPE":"U","NORAD_CAT_ID":61065,"ELEMENT_SET_NO":999,"REV_AT_EPOCH":8268,"BSTAR":6.2175e-5,"MEAN_MOTION_DOT":1.482e-5,"MEAN_MOTION_DDOT":0},{"OBJECT_NAME":"STARLINK-32381","OBJECT_ID":"2024-164S","EPOCH":"2026-03-04T12:37:03.573984","MEAN_MOTION":15.30199065,"ECCENTRICITY":0.0001152,"INCLINATION":53.1602,"RA_OF_ASC_NODE":115.3362,"ARG_OF_PERICENTER":94.4547,"MEAN_ANOMALY":265.6585,"EPHEMERIS_TYPE":0,"CLASSIFICATION_TYPE":"U","NORAD_CAT_ID":61066,"ELEMENT_SET_NO":999,"REV_AT_EPOCH":8268,"BSTAR":9.4445e-5,"MEAN_MOTION_DOT":2.439e-5,"MEAN_MOTION_DDOT":0},{"OBJECT_NAME":"STARLINK-32385","OBJECT_ID":"2024-164U","EPOCH":"2026-03-04T12:17:18.277440","MEAN_MOTION":15.30191663,"ECCENTRICITY":9.961e-5,"INCLINATION":53.1589,"RA_OF_ASC_NODE":115.2513,"ARG_OF_PERICENTER":128.7964,"MEAN_ANOMALY":231.3126,"EPHEMERIS_TYPE":0,"CLASSIFICATION_TYPE":"U","NORAD_CAT_ID":61068,"ELEMENT_SET_NO":999,"REV_AT_EPOCH":8268,"BSTAR":2.8056707e-5,"MEAN_MOTION_DOT":4.72e-6,"MEAN_MOTION_DDOT":0}]
